STARLINK-1686           
1 46328U 20062D   26068.94194689  .00125350  00000+0  99254-3 0  9992
2 46328  53.0437 313.2055 0005526 281.1531  78.8864 15.70442116305229
TIGER-6                 
1 58272U 23174S   26068.73366728  .00113437  00000+0  98002-3 0  9995
2 58272  97.3904 161.9275 0003121 155.9023 204.2385 15.68857868130641
